{
  "type": "FeatureCollection",
  "features": [
    {
      "type": "Feature",
      "properties": {
        "norad_id": 62876,
        "name": "QZS-6 (QZSS/PRN 200)",
        "group": "gnss",
        "lat": 0.03504552719145775,
        "lon": 171.88779143169654,
        "alt_km": 35787.259945691025,
        "timestamp": "2025-12-17T23:38:07.098068+00:00",
        "meta_object_name": "QZS-6 (QZSS/PRN 200)",
        "meta_object_id": "2025-023A",
        "meta_epoch": "2025-12-17T13:45:27.565344",
        "meta_mean_motion": 1.00273394,
        "meta_eccentricity": 0.00015075,
        "meta_inclination": 0.0433,
        "meta_ra_of_asc_node": 65.7941,
        "meta_arg_of_pericenter": 210.7279,
        "meta_mean_anomaly": 106.8217,
        "meta_ephemeris_type": 0,
        "meta_classification_type": "U",
        "meta_norad_cat_id": 62876,
        "meta_element_set_no": 999,
        "meta_rev_at_epoch": 313,
        "meta_bstar": 0,
        "meta_mean_motion_dot": -2.09e-06,
        "meta_mean_motion_ddot": 0,
        "tle_line1": "1 62876U 25023A   25351.57323571 -.00000209  00000+0  00000+0 0  9990",
        "tle_line2": "2 62876   0.0433  65.7941 0001507 210.7279 106.8217  1.00273394  3135"
      },
      "geometry": {
        "type": "Point",
        "coordinates": [
          171.88779143169654,
          0.03504552719145775
        ]
      }
    },
    {
      "type": "Feature",
      "properties": {
        "norad_id": 63130,
        "name": "COSMOS 2584 (704K)",
        "group": "gnss",
        "lat": -15.270289628869055,
        "lon": 71.66293394789002,
        "alt_km": 19143.600369775046,
        "timestamp": "2025-12-17T23:38:07.098079+00:00",
        "meta_object_name": "COSMOS 2584 (704K)",
        "meta_object_id": "2025-042A",
        "meta_epoch": "2025-12-14T17:19:43.603680",
        "meta_mean_motion": 2.13103043,
        "meta_eccentricity": 0.00076907,
        "meta_inclination": 64.977,
        "meta_ra_of_asc_node": 79.0784,
        "meta_arg_of_pericenter": 217.9412,
        "meta_mean_anomaly": 142.0178,
        "meta_ephemeris_type": 0,
        "meta_classification_type": "U",
        "meta_norad_cat_id": 63130,
        "meta_element_set_no": 999,
        "meta_rev_at_epoch": 611,
        "meta_bstar": 0,
        "meta_mean_motion_dot": -5.6e-07,
        "meta_mean_motion_ddot": 0,
        "tle_line1": "1 63130U 25042A   25348.72203245 -.00000056  00000+0  00000+0 0  9993",
        "tle_line2": "2 63130  64.9770  79.0784 0007690 217.9412 142.0178  2.13103043  6119"
      },
      "geometry": {
        "type": "Point",
        "coordinates": [
          71.66293394789002,
          -15.270289628869055
        ]
      }
    },
    {
      "type": "Feature",
      "properties": {
        "norad_id": 64202,
        "name": "GPS BIII-8  (PRN 21)",
        "group": "gnss",
        "lat": -54.48660959298789,
        "lon": -39.238172319867864,
        "alt_km": 20175.762015387718,
        "timestamp": "2025-12-17T23:38:07.098090+00:00",
        "meta_object_name": "GPS BIII-8  (PRN 21)",
        "meta_object_id": "2025-116A",
        "meta_epoch": "2025-12-14T02:46:13.653120",
        "meta_mean_motion": 2.00558299,
        "meta_eccentricity": 0.00056153,
        "meta_inclination": 55.1067,
        "meta_ra_of_asc_node": 38.5851,
        "meta_arg_of_pericenter": 308.147,
        "meta_mean_anomaly": 55.2369,
        "meta_ephemeris_type": 0,
        "meta_classification_type": "U",
        "meta_norad_cat_id": 64202,
        "meta_element_set_no": 999,
        "meta_rev_at_epoch": 416,
        "meta_bstar": 0,
        "meta_mean_motion_dot": -9.6e-07,
        "meta_mean_motion_ddot": 0,
        "tle_line1": "1 64202U 25116A   25348.11543580 -.00000096  00000+0  00000+0 0  9992",
        "tle_line2": "2 64202  55.1067  38.5851 0005615 308.1470  55.2369  2.00558299  4161"
      },
      "geometry": {
        "type": "Point",
        "coordinates": [
          -39.238172319867864,
          -54.48660959298789
        ]
      }
    },
    {
      "type": "Feature",
      "properties": {
        "norad_id": 65590,
        "name": "COSMOS 2596 (708K)",
        "group": "gnss",
        "lat": 62.356884608101744,
        "lon": 76.96098495083167,
        "alt_km": 19155.74633444945,
        "timestamp": "2025-12-17T23:38:07.098104+00:00",
        "meta_object_name": "COSMOS 2596 (708K)",
        "meta_object_id": "2025-206B",
        "meta_epoch": "2025-12-16T13:58:37.157664",
        "meta_mean_motion": 2.13100551,
        "meta_eccentricity": 0.00140491,
        "meta_inclination": 64.7424,
        "meta_ra_of_asc_node": 321.3409,
        "meta_arg_of_pericenter": 306.7915,
        "meta_mean_anomaly": 158.8114,
        "meta_ephemeris_type": 0,
        "meta_classification_type": "U",
        "meta_norad_cat_id": 65590,
        "meta_element_set_no": 999,
        "meta_rev_at_epoch": 202,
        "meta_bstar": 0,
        "meta_mean_motion_dot": -6.9e-07,
        "meta_mean_motion_ddot": 0,
        "tle_line1": "1 65590U 25206B   25350.58237451 -.00000069  00000+0  00000+0 0  9994",
        "tle_line2": "2 65590  64.7424 321.3409 0014049 306.7915 158.8114  2.13100551  2025"
      },
      "geometry": {
        "type": "Point",
        "coordinates": [
          76.96098495083167,
          62.356884608101744
        ]
      }
    },
    {
      "type": "Feature",
      "properties": {
        "norad_id": 67160,
        "name": "GALILEO A",
        "group": "gnss",
        "lat": -52.956294072320084,
        "lon": -0.20805746270591385,
        "alt_km": 22930.715766818787,
        "timestamp": "2025-12-17T23:38:07.098134+00:00",
        "meta_object_name": "GALILEO A",
        "meta_object_id": "2025-302A",
        "meta_epoch": "2025-12-17T13:37:30.970848",
        "meta_mean_motion": 1.72894122,
        "meta_eccentricity": 0.0007404,
        "meta_inclination": 54.2333,
        "meta_ra_of_asc_node": 107.264,
        "meta_arg_of_pericenter": 239.3858,
        "meta_mean_anomaly": 120.5001,
        "meta_ephemeris_type": 0,
        "meta_classification_type": "U",
        "meta_norad_cat_id": 67160,
        "meta_element_set_no": 999,
        "meta_rev_at_epoch": 1,
        "meta_bstar": 0,
        "meta_mean_motion_dot": -8e-08,
        "meta_mean_motion_ddot": 0,
        "tle_line1": "1 67160U 25302A   25351.56771957 -.00000008  00000+0  00000+0 0  9992",
        "tle_line2": "2 67160  54.2333 107.2640 0007404 239.3858 120.5001  1.72894122    11"
      },
      "geometry": {
        "type": "Point",
        "coordinates": [
          -0.20805746270591385,
          -52.956294072320084
        ]
      }
    },
    {
      "type": "Feature",
      "properties": {
        "norad_id": 67161,
        "name": "GALILEO B",
        "group": "gnss",
        "lat": -52.995007715049546,
        "lon": 0.03966077602526541,
        "alt_km": 22927.678355912536,
        "timestamp": "2025-12-17T23:38:07.098149+00:00",
        "meta_object_name": "GALILEO B",
        "meta_object_id": "2025-302B",
        "meta_epoch": "2025-12-17T13:37:26.133312",
        "meta_mean_motion": 1.7297556,
        "meta_eccentricity": 0.0005026,
        "meta_inclination": 54.2323,
        "meta_ra_of_asc_node": 107.2467,
        "meta_arg_of_pericenter": 244.253,
        "meta_mean_anomaly": 115.654,
        "meta_ephemeris_type": 0,
        "meta_classification_type": "U",
        "meta_norad_cat_id": 67161,
        "meta_element_set_no": 999,
        "meta_rev_at_epoch": 2,
        "meta_bstar": 0,
        "meta_mean_motion_dot": -8e-08,
        "meta_mean_motion_ddot": 0,
        "tle_line1": "1 67161U 25302B   25351.56766358 -.00000008  00000+0  00000+0 0  9992",
        "tle_line2": "2 67161  54.2323 107.2467 0005026 244.2530 115.6540  1.72975560    28"
      },
      "geometry": {
        "type": "Point",
        "coordinates": [
          0.03966077602526541,
          -52.995007715049546
        ]
      }
    }
  ]
}